IRIDIUM 151             
1 43074U 17083E   26064.90049938  .00000005  00000+0 -51773-5 0  9990
2 43074  86.4020   5.2180 0002182  87.7046 272.4400 14.34217721429333
IRIDIUM 134             
1 43075U 17083F   26064.86878566  .00000389  00000+0  13200-3 0  9998
2 43075  86.4021   5.2379 0002037  85.3118 274.8311 14.34218043429298
IRIDIUM 137             
1 43076U 17083G   26064.88147226 -.00000005  00000+0 -89073-5 0  9993
2 43076  86.4017   5.3233 0002275  97.0061 263.1394 14.34217527429361
IRIDIUM 141             
1 43077U 17083H   26064.87513562  .00000341  00000+0  11463-3 0  9990
2 43077  86.4018   5.1625 0002211  82.5987 277.5460 14.34221754429362
IRIDIUM 153             
1 43078U 17083J   26064.75753885  .00000059  00000+0  14107-4 0  9997
2 43078  86.4017 333.7261 0002128  79.9007 280.2429 14.34218079430452
IRIDIUM 131             
1 43079U 17083K   26064.93221242  .00000360  00000+0  12139-3 0  9992
2 43079  86.4025   5.3177 0002303  84.8701 275.2757 14.34218579429306
IRIDIUM 144             
1 43249U 18030A   26064.69411358  .00000091  00000+0  25558-4 0  9997
2 43249  86.4015 333.6837 0002060  88.5496 271.5936 14.34218004415302
IRIDIUM 149             
1 43250U 18030B   26064.21207642  .00000019  00000+0 -41550-6 0  9999
2 43250  86.4008 333.8529 0002067  82.7041 277.4390 14.34217672415258
IRIDIUM 157             
1 43251U 18030C   26064.71948337  .00000015  00000+0 -16507-5 0  9997
2 43251  86.4001 333.6912 0002088  85.1241 275.0194 14.34217795415306
IRIDIUM 140             
1 43252U 18030D   26064.73851159  .00000050  00000+0  10850-4 0  9997
2 43252  86.4015 333.6969 0002018  84.3357 275.8068 14.34217852415364
IRIDIUM 145             
1 43253U 18030E   26064.72582169  .00000358  00000+0  12071-3 0  9996
2 43253  86.4013 333.6748 0001899  93.6656 266.4757 14.34220559415290
IRIDIUM 146             
1 43254U 18030F   26064.70679674  .00000156  00000+0  48688-4 0  9993
2 43254  86.4014 333.6953 0002073  89.6686 270.4747 14.34218951415302
IRIDIUM 148             
1 43255U 18030G   26064.74485416  .00000304  00000+0  10142-3 0  9995
2 43255  86.4015 333.7208 0002179  86.5990 273.5455 14.34218449415345
IRIDIUM 142             
1 43256U 18030H   26064.71314059  .00000012  00000+0 -27139-5 0  9990
2 43256  86.4006 333.6267 0001833  92.9457 267.1949 14.34217707415304
IRIDIUM 150             
1 43257U 18030J   26064.75119647  .00000083  00000+0  22584-4 0  9996
2 43257  86.4015 333.7239 0002073  85.8933 274.2499 14.34217445415333
IRIDIUM 143             
1 43258U 18030K   26064.73216853  .00000006  00000+0 -49928-5 0  9990
2 43258  86.4014 333.8202 0001899  89.7316 270.4097 14.34217718415264
IRIDIUM 161             
1 43478U 18047C   26064.79670851  .00000456  00000+0  12952-3 0  9993
2 43478  86.4507 131.7096 0002525  91.7608 268.3882 14.43285004410227
